INTELSAT 902 (IS-902)   
1 26900U 01039A   26091.38532750 -.00000288  00000+0  00000+0 0  9998
2 26900   5.9240  72.7055 0004511 296.1274 269.5340  1.00272965 89926
INTELSAT 904 (IS-904)   
1 27380U 02007A   26091.67434898 -.00000229  00000+0  00000+0 0  9998
2 27380   6.7305  70.0901 0007330 323.7782   7.4411  1.00273401 50993
DIRECTV 5 (TEMPO 1)     
1 27426U 02023A   26091.59710443 -.00000062  00000+0  00000+0 0  9996
2 27426   4.6833  76.2495 0003665 303.0586 275.4954  1.00272344 87357
INTELSAT 905 (IS-905)   
1 27438U 02027A   26091.60729922  .00000090  00000+0  00000+0 0  9997
2 27438   6.5627  70.7094 0003193 310.4550 250.2193  1.00272470 50597
GALAXY 3C (G-3C)        
1 27445U 02030A   26091.59062707 -.00000159  00000+0  00000+0 0  9995
2 27445   3.5336  79.0278 0001441  22.2028 206.4821  1.00271617 45729
INTELSAT 906 (IS-906)   
1 27513U 02041A   26091.47936120  .00000008  00000+0  00000+0 0  9991
2 27513   5.6084  73.8499 0003328 306.5208  46.1831  1.00271533 86259
GALAXY 13 (HORIZONS-1)  
1 27954U 03044A   26091.61221568  .00000125  00000+0  00000+0 0  9993
2 27954   1.2205  84.8193 0002178 290.7036 244.8415  1.00273901 45805
INTELSAT 10-02          
1 28358U 04022A   26091.39512088 -.00000021  00000+0  00000+0 0  9990
2 28358   0.0437  41.6591 0001746  26.6715 262.6383  1.00273625 79780
DIRECTV 8               
1 28659U 05019A   26091.65692889 -.00000008  00000+0  00000+0 0  9993
2 28659   0.0192 153.8747 0003309 229.1819 284.3994  1.00273257 76308
GALAXY 28 (G-28)        
1 28702U 05022A   26091.67512897 -.00000206  00000+0  00000+0 0  9998
2 28702   3.1014  79.8655 0002273 295.7025  30.4214  1.00271239 51201
GALAXY 16 (G-16)        
1 29236U 06023A   26091.30072449 -.00000136  00000+0  00000+0 0  9999
2 29236   0.0229 218.8145 0002964 166.6889 173.3872  1.00268953 72207
DIRECTV 9S              
1 29494U 06043A   26091.66048226 -.00000120  00000+0  00000+0 0  9995
2 29494   2.2240  81.8083 0003676 304.2344 300.5471  1.00271887 50616
GALAXY 17 (G-17)        
1 31307U 07016B   26091.37475089 -.00000214  00000+0  00000+0 0  9995
2 31307   2.7785  80.8479 0003917 300.2651 218.5242  1.00272150 69038
INTELSAT 11 (IS-11)     
1 32253U 07044B   26091.62947797 -.00000103  00000+0  00000+0 0  9992
2 32253   3.3668  79.5831 0003131 219.0208 220.4971  0.99048695 67699
HORIZONS-2              
1 32388U 07063B   26091.45197443 -.00000261  00000+0  00000+0 0  9993
2 32388   2.4049  81.5599 0002742 297.8955 259.2664  1.00271527 67048
DIRECTV 11              
1 32729U 08013A   26091.53656685 -.00000135  00000+0  00000+0 0  9995
2 32729   0.0195  23.8934 0000297 304.9233 315.0370  1.00271319 44822
GALAXY 18 (G-18)        
1 32951U 08024A   26091.65614889  .00000015  00000+0  00000+0 0  9993
2 32951   0.0207 221.5998 0003114 153.0062 288.6140  1.00279261 45087
INTELSAT 25 (IS-25)     
1 33153U 08034A   26091.67426231 -.00000231  00000+0  00000+0 0  9994
2 33153   2.5109  81.2267 0003192 246.0350  74.0072  1.00271796 64929
GALAXY 19 (G-19)        
1 33376U 08045A   26091.59139544 -.00000148  00000+0  00000+0 0  9999
2 33376   0.0296 251.0494 0002854 121.6220 293.1711  1.00272828 64137
FM-5                    
1 35493U 09034A   26091.44954776 -.00000210  00000+0  00000+0 0  9996
2 35493   0.0232 255.8580 0000439 357.5523  12.0681  1.00270534 45876
INTELSAT 14 (IS-14)     
1 36097U 09064A   26091.45769447 -.00000283  00000+0  00000+0 0  9990
2 36097   0.0372  76.1919 0002506 301.9405 291.4461  1.00270423 59838
INTELSAT 15 (IS-15)     
1 36106U 09067A   26091.48343457 -.00000194  00000+0  00000+0 0  9997
2 36106   0.0128 245.9387 0002393 133.9729  69.1034  1.00270324 40453
DIRECTV 12              
1 36131U 09075A   26091.44625441 -.00000113  00000+0  00000+0 0  9997
2 36131   0.0139   3.0666 0000392  26.3075 218.3498  1.00272371 45789
INTELSAT 16 (IS-16)     
1 36397U 10006A   26091.36919892 -.00000254  00000+0  00000+0 0  9990
2 36397   0.0184 247.9555 0001940 143.4917 214.9695  1.00270106 58885
XM-5                    
1 37185U 10053A   26091.65770890 -.00000032  00000+0  00000+0 0  9997
2 37185   0.0666 269.5623 0003695 268.1858 133.8303  1.00270530 56716
INTELSAT 17 (IS-17)     
1 37238U 10065B   26091.75530837 -.00000010  00000+0  00000+0 0  9991
2 37238   0.0204 209.2646 0002424 171.2758 147.4788  1.00270977 52484
INTELSAT 28 (IS-28)     
1 37392U 11016A   26091.67426231 -.00000232  00000+0  00000+0 0  9998
2 37392   1.6090  83.5510 0004452 292.5441  24.9563  1.00272524 52511
INTELSAT 18 (IS-18)     
1 37834U 11056A   26091.62753213  .00000044  00000+0  00000+0 0  9991
2 37834   0.0254 254.5808 0001960 111.6249 229.6716  1.00272743 53041
INTELSAT 22 (IS-22)     
1 38098U 12011A   26091.40959427 -.00000069  00000+0  00000+0 0  9995
2 38098   0.0212 233.8771 0001673 149.5964  25.8591  1.00275288  6415
INTELSAT 19 (IS-19)     
1 38356U 12030A   26091.80114150 -.00000065  00000+0  00000+0 0  9999
2 38356   0.0201 151.7114 0003195 234.1677 258.6758  1.00272182 49689
INTELSAT 20 (IS-20)     
1 38740U 12043A   26091.62280463 -.00000037  00000+0  00000+0 0  9990
2 38740   0.0113 172.0291 0002515  19.7758 290.8846  1.00287351 49985
INTELSAT 21 (IS-21)     
1 38749U 12045A   26091.45509444 -.00000294  00000+0  00000+0 0  9990
2 38749   0.0167 227.6778 0001722 151.2370 276.7208  1.00271137 49756
INTELSAT 23 (IS-23)     
1 38867U 12057A   26091.45613446 -.00000294  00000+0  00000+0 0  9992
2 38867   0.0265 253.4138 0000471 115.0420 292.5639  1.00270203 49181
FM-6                    
1 39360U 13058A   26090.65919437 -.00000028  00000+0  00000+0 0  9998
2 39360   0.0137 202.4015 0002787 346.5348 121.0431  1.00270803 45298
INTELSAT 30 (IS-30)     
1 40271U 14062A   26091.59070175  .00000000  00000+0  00000+0 0  9997
2 40271   0.0116 169.0484 0001239 311.3685 187.1357  1.00268331  6022
DIRECTV 14              
1 40333U 14078B   26091.53656773  .00000000  00000+0  00000+0 0  9991
2 40333   0.0163 186.9744 0000728 316.4881 140.3603  1.00268350 41278
DIRECTV 15              
1 40663U 15026A   26091.66013558 -.00000111  00000+0  00000+0 0  9997
2 40663   0.0304  97.0584 0000326  81.7171 146.0005  1.00269124 39695
SKY MEXICO-1            
1 40664U 15026B   26091.45102110  .00000000  00000+0  00000+0 0  9994
2 40664   0.0207 181.3628 0002626 217.4908 234.5235  1.00268588 39685
INTELSAT 34 (IS-34)     
1 40874U 15039A   26091.45561444 -.00000295  00000+0  00000+0 0  9997
2 40874   0.0236 270.0600 0000234 332.8277  55.4540  1.00270721 38859
INTELSAT 31 (IS-31)     
1 41581U 16035A   26091.59070218 -.00000160  00000+0  00000+0 0  9990
2 41581   0.0139 220.8317 0001777  36.3386  50.3843  1.00273739 35911
INTELSAT 36 (IS-36)     
1 41747U 16053A   26091.62280463  .00000000  00000+0  00000+0 0  9995
2 41747   0.0106 189.7279 0001054 145.8813 147.0845  1.00269760 35193
INTELSAT 32E (IS-32E)   
1 41945U 17007B   26091.45804113  .00000000  00000+0  00000+0 0  9990
2 41945   0.0218 196.8044 0000236  65.9393  48.7897  1.00266915 33452
INTELSAT 35E (IS-35E)   
1 42818U 17041A   26091.67365564 -.00000247  00000+0  00000+0 0  9998
2 42818   0.0113 232.3395 0002231 135.2854  30.3982  1.00271549 32046
INTELSAT 37E (IS-37E)   
1 42950U 17059A   26091.39174086  .00000000  00000+0  00000+0 0  9996
2 42950   0.0244 207.2850 0002084 182.3758 283.1082  1.00268757 31299
AZERSPACE 2 (IS-38)     
1 43632U 18074A   26091.68942904  .00000000  00000+0  00000+0 0  9996
2 43632   0.0219 197.7340 0001541 188.2689  97.3504  1.00271349 27684
HORIZONS-3E             
1 43633U 18074B   26091.80114150 -.00000039  00000+0  00000+0 0  9998
2 43633   0.0038  72.2505 0000824 242.7708 332.5377  1.00271500 27574
AT&T T-16               
1 44333U 19034A   26091.66056892 -.00000124  00000+0  00000+0 0  9990
2 44333   0.0287  99.1110 0000969  81.4841 146.3532  1.00272973 24862
INTELSAT 39 (IS-39)     
1 44476U 19049B   26091.76086324  .00000000  00000+0  00000+0 0  9990
2 44476   0.0210 192.3334 0000336 321.3699  12.2644  1.00270096 24369
GALAXY 30 (G-30)        
1 46114U 20056C   26091.65580223  .00000000  00000+0  00000+0 0  9996
2 46114   0.0246 211.9254 0002387 183.3044 265.8672  1.00271170 20521
GALAXY 33 (G-33)        
1 54026U 22128A   26091.65415556  .00000070  00000+0  00000+0 0  9992
2 54026   0.0193 242.5280 0001897 125.9634 284.0100  1.00270475 12970
GALAXY 34 (G-34)        
1 54027U 22128B   26091.65493556  .00000050  00000+0  00000+0 0  9997
2 54027   0.0119 217.3242 0001453 148.7592 290.6847  1.00271397 13146
GALAXY 31 (G-31)        
1 54243U 22153A   26091.65658223  .00000004  00000+0  00000+0 0  9998
2 54243   0.0110 215.3103 0001526 167.4366 282.6294  1.00273602  6363
GALAXY 32 (G-32)        
1 54244U 22153B   26091.44859441  .00000000  00000+0  00000+0 0  9997
2 54244   0.0151 195.5763 0003069 177.9603 246.7660  1.00269166 12370
GALAXY 35 (G-35)        
1 54741U 22170A   26091.58758607 -.00000171  00000+0  00000+0 0  9995
2 54741   0.0151 226.6613 0002060 149.5167 292.1802  1.00272691 12125
GALAXY 36 (G-36)        
1 54742U 22170B   26091.44894109 -.00000195  00000+0  00000+0 0  9995
2 54742   0.0142 162.0405 0002473 250.3408 210.0287  1.00271210 12004
GALAXY 37 (G-37)        
1 57493U 23112A   26091.65536890  .00000000  00000+0  00000+0 0  9995
2 57493   0.0182 175.8459 0002130 204.2066 278.8973  1.00271626  9778